SPOT 6                  
1 38755U 12047A   26188.50408862  .00000613  00000+0  14185-3 0  9991
2 38755  98.2105 255.5748 0001165  78.3762 281.7568 14.58537403736011
SPOT 7                  
1 40053U 14034A   26188.52269927  .00000578  00000+0  12710-3 0  9994
2 40053  98.0613 250.4900 0001504  97.5661 262.5711 14.60977834640109
