{"fetched_at":"2026-07-07T18:29:50.264Z","source":"https://celestrak.org/NORAD/elements/gp.php?NAME=SPOT&FORMAT=JSON","constellation":"spot","records":[{"OBJECT_NAME":"SPOT 6","OBJECT_ID":"2012-047A","EPOCH":"2026-07-07T12:05:53.256768","CLASSIFICATION_TYPE":"U","MEAN_MOTION":14.58537403,"ECCENTRICITY":0.0001165,"INCLINATION":98.2105,"RA_OF_ASC_NODE":255.5748,"ARG_OF_PERICENTER":78.3762,"MEAN_ANOMALY":281.7568,"EPHEMERIS_TYPE":0,"NORAD_CAT_ID":38755,"ELEMENT_SET_NO":999,"REV_AT_EPOCH":73601,"BSTAR":0.00014185,"MEAN_MOTION_DOT":0.00000613,"MEAN_MOTION_DDOT":0},{"OBJECT_NAME":"SPOT 7","OBJECT_ID":"2014-034A","EPOCH":"2026-07-07T12:32:41.216928","CLASSIFICATION_TYPE":"U","MEAN_MOTION":14.60977834,"ECCENTRICITY":0.0001504,"INCLINATION":98.0613,"RA_OF_ASC_NODE":250.49,"ARG_OF_PERICENTER":97.5661,"MEAN_ANOMALY":262.5711,"EPHEMERIS_TYPE":0,"NORAD_CAT_ID":40053,"ELEMENT_SET_NO":999,"REV_AT_EPOCH":64010,"BSTAR":0.0001271,"MEAN_MOTION_DOT":0.00000578,"MEAN_MOTION_DDOT":0}]}
